start=new Date('2022-07-26T00:00:00.000Z').valueOf();
sats=[{"SEMIMAJOR_AXIS":"6925.353","EPHEMERIS_TYPE":"0","DECAY_DATE":null,"FILE":"3521711","ELEMENT_SET_NO":"999","APOAPSIS":"548.306","CLASSIFICATION_TYPE":"U","MEAN_MOTION_DOT":"-0.00000222","RA_OF_ASC_NODE":"230.3192","MEAN_ELEMENT_THEORY":"SGP4","TLE_LINE2":"2 47650  53.0547 230.3192 0001570  62.9270 297.1879 15.06398393 80869","OBJECT_TYPE":"PAYLOAD","MEAN_ANOMALY":"297.1879","ARG_OF_PERICENTER":"62.9270","OBJECT_NAME":"STARLINK-2033","TIME_SYSTEM":"UTC","TLE_LINE1":"1 47650U 21012AG  22206.79876538 -.00000222  00000-0  39715-5 0  9990","MEAN_MOTION_DDOT":"0.0000000000000","GP_ID":"208862226","EPOCH":"2022-07-25T19:10:13.328832","OBJECT_ID":"2021-012AG","MEAN_MOTION":"15.06398393","REV_AT_EPOCH":"8086","INCLINATION":"53.0547","PERIAPSIS":"546.131","NORAD_CAT_ID":"47650","REF_FRAME":"TEME","ECCENTRICITY":"0.00015700","RCS_SIZE":"LARGE","LAUNCH_DATE":"2021-02-16","CENTER_NAME":"EARTH","SITE":"AFETR","BSTAR":"0.00000397150000","COUNTRY_CODE":"US","PERIOD":"95.592"},{"FILE":"3521711","APOAPSIS":"548.337","ELEMENT_SET_NO":"999","CLASSIFICATION_TYPE":"U","DECAY_DATE":null,"EPHEMERIS_TYPE":"0","SEMIMAJOR_AXIS":"6925.364","MEAN_ANOMALY":"283.7379","RA_OF_ASC_NODE":"250.1897","MEAN_ELEMENT_THEORY":"SGP4","MEAN_MOTION_DOT":"0.00003919","OBJECT_TYPE":"PAYLOAD","TLE_LINE2":"2 47651  53.0542 250.1897 0001601  76.3788 283.7379 15.06395119 80606","TLE_LINE1":"1 47651U 21012AH  22206.83747966  .00003919  00000-0  28187-3 0  9992","OBJECT_NAME":"STARLINK-2035","ARG_OF_PERICENTER":"76.3788","TIME_SYSTEM":"UTC","MEAN_MOTION_DDOT":"0.0000000000000","EPOCH":"2022-07-25T20:05:58.242624","REV_AT_EPOCH":"8060","MEAN_MOTION":"15.06395119","OBJECT_ID":"2021-012AH","GP_ID":"208860974","REF_FRAME":"TEME","NORAD_CAT_ID":"47651","ECCENTRICITY":"0.00016010","RCS_SIZE":"LARGE","INCLINATION":"53.0542","PERIAPSIS":"546.120","BSTAR":"0.00028187000000","SITE":"AFETR","LAUNCH_DATE":"2021-02-16","CENTER_NAME":"EARTH","PERIOD":"95.592","COUNTRY_CODE":"US"},{"MEAN_MOTION_DDOT":"0.0000000000000","TLE_LINE1":"1 47652U 21012AJ  22206.79324235  .00000759  00000-0  69854-4 0  9994","TIME_SYSTEM":"UTC","OBJECT_NAME":"STARLINK-2036","ARG_OF_PERICENTER":"73.6075","MEAN_ANOMALY":"286.5087","OBJECT_TYPE":"PAYLOAD","TLE_LINE2":"2 47652  53.0533 250.3345 0001567  73.6075 286.5087 15.06392459 80596","MEAN_ELEMENT_THEORY":"SGP4","RA_OF_ASC_NODE":"250.3345","MEAN_MOTION_DOT":"0.00000759","ELEMENT_SET_NO":"999","APOAPSIS":"548.322","CLASSIFICATION_TYPE":"U","FILE":"3521711","DECAY_DATE":null,"EPHEMERIS_TYPE":"0","SEMIMAJOR_AXIS":"6925.372","PERIOD":"95.593","COUNTRY_CODE":"US","SITE":"AFETR","BSTAR":"0.00006985400000","CENTER_NAME":"EARTH","LAUNCH_DATE":"2021-02-16","ECCENTRICITY":"0.00015670","RCS_SIZE":"LARGE","REF_FRAME":"TEME","NORAD_CAT_ID":"47652","PERIAPSIS":"546.151","INCLINATION":"53.0533","MEAN_MOTION":"15.06392459","REV_AT_EPOCH":"8059","OBJECT_ID":"2021-012AJ","EPOCH":"2022-07-25T19:02:16.139040","GP_ID":"208861224"},{"MEAN_MOTION_DDOT":"0.0000000000000","TLE_LINE1":"1 47653U 21012AK  22206.78770340  .00001101  00000-0  92787-4 0  9999","ARG_OF_PERICENTER":"54.1144","OBJECT_NAME":"STARLINK-2037","TIME_SYSTEM":"UTC","MEAN_ANOMALY":"306.0005","MEAN_MOTION_DOT":"0.00001101","RA_OF_ASC_NODE":"230.3523","MEAN_ELEMENT_THEORY":"SGP4","OBJECT_TYPE":"PAYLOAD","TLE_LINE2":"2 47653  53.0535 230.3523 0001733  54.1144 306.0005 15.06401126 80861","FILE":"3521711","CLASSIFICATION_TYPE":"U","APOAPSIS":"548.410","ELEMENT_SET_NO":"999","EPHEMERIS_TYPE":"0","SEMIMAJOR_AXIS":"6925.345","DECAY_DATE":null,"PERIOD":"95.592","COUNTRY_CODE":"US","SITE":"AFETR","BSTAR":"0.00009278700000","LAUNCH_DATE":"2021-02-16","CENTER_NAME":"EARTH","NORAD_CAT_ID":"47653","REF_FRAME":"TEME","RCS_SIZE":"LARGE","ECCENTRICITY":"0.00017330","PERIAPSIS":"546.010","INCLINATION":"53.0535","EPOCH":"2022-07-25T18:54:17.573760","OBJECT_ID":"2021-012AK","REV_AT_EPOCH":"8086","MEAN_MOTION":"15.06401126","GP_ID":"208861976"},{"DECAY_DATE":null,"SEMIMAJOR_AXIS":"6925.350","EPHEMERIS_TYPE":"0","FILE":"3521711","ELEMENT_SET_NO":"999","APOAPSIS":"548.184","CLASSIFICATION_TYPE":"U","MEAN_ELEMENT_THEORY":"SGP4","RA_OF_ASC_NODE":"251.2189","MEAN_MOTION_DOT":"0.00000235","OBJECT_TYPE":"PAYLOAD","TLE_LINE2":"2 47654  53.0542 251.2189 0001399  62.5342 297.5789 15.06399408 80560","MEAN_ANOMALY":"297.5789","ARG_OF_PERICENTER":"62.5342","OBJECT_NAME":"STARLINK-2038","TIME_SYSTEM":"UTC","TLE_LINE1":"1 47654U 21012AL  22206.59789543  .00000235  00000-0  34655-4 0  9991","MEAN_MOTION_DDOT":"0.0000000000000","GP_ID":"208862726","EPOCH":"2022-07-25T14:20:58.165152","MEAN_MOTION":"15.06399408","REV_AT_EPOCH":"8056","OBJECT_ID":"2021-012AL","INCLINATION":"53.0542","PERIAPSIS":"546.247","REF_FRAME":"TEME","NORAD_CAT_ID":"47654","RCS_SIZE":"LARGE","ECCENTRICITY":"0.00013990","LAUNCH_DATE":"2021-02-16","CENTER_NAME":"EARTH","BSTAR":"0.00003465500000","SITE":"AFETR","COUNTRY_CODE":"US","PERIOD":"95.592"},{"MEAN_MOTION_DDOT":"0.0000000000000","OBJECT_NAME":"STARLINK-2039","ARG_OF_PERICENTER":"69.7352","TIME_SYSTEM":"UTC","TLE_LINE1":"1 47655U 21012AM  22206.85590382 -.00001009  00000-0 -48840-4 0  9995","MEAN_ELEMENT_THEORY":"SGP4","RA_OF_ASC_NODE":"250.0602","MEAN_MOTION_DOT":"-0.00001009","TLE_LINE2":"2 47655  53.0535 250.0602 0001329  69.7352 290.3779 15.06395134 80600","OBJECT_TYPE":"PAYLOAD","MEAN_ANOMALY":"290.3779","DECAY_DATE":null,"SEMIMAJOR_AXIS":"6925.363","EPHEMERIS_TYPE":"0","FILE":"3521711","APOAPSIS":"548.149","ELEMENT_SET_NO":"999","CLASSIFICATION_TYPE":"U","COUNTRY_CODE":"US","PERIOD":"95.592","LAUNCH_DATE":"2021-02-16","CENTER_NAME":"EARTH","SITE":"AFETR","BSTAR":"-0.00004884000000","PERIAPSIS":"546.308","INCLINATION":"53.0535","REF_FRAME":"TEME","NORAD_CAT_ID":"47655","RCS_SIZE":"LARGE","ECCENTRICITY":"0.00013290","GP_ID":"208861474","EPOCH":"2022-07-25T20:32:30.090048","MEAN_MOTION":"15.06395134","REV_AT_EPOCH":"8060","OBJECT_ID":"2021-012AM"},{"REF_FRAME":"TEME","NORAD_CAT_ID":"47656","RCS_SIZE":"LARGE","ECCENTRICITY":"0.00016840","INCLINATION":"53.0524","PERIAPSIS":"546.027","EPOCH":"2022-07-25T19:20:51.192384","REV_AT_EPOCH":"8087","MEAN_MOTION":"15.06406625","OBJECT_ID":"2021-012AN","GP_ID":"208861724","PERIOD":"95.592","COUNTRY_CODE":"US","SITE":"AFETR","BSTAR":"0.00024774000000","LAUNCH_DATE":"2021-02-16","CENTER_NAME":"EARTH","MEAN_ANOMALY":"295.6095","RA_OF_ASC_NODE":"230.2840","MEAN_ELEMENT_THEORY":"SGP4","MEAN_MOTION_DOT":"0.00003411","OBJECT_TYPE":"PAYLOAD","TLE_LINE2":"2 47656  53.0524 230.2840 0001684  64.5068 295.6095 15.06406625 80870","FILE":"3521711","APOAPSIS":"548.359","CLASSIFICATION_TYPE":"U","ELEMENT_SET_NO":"999","DECAY_DATE":null,"EPHEMERIS_TYPE":"0","SEMIMAJOR_AXIS":"6925.328","MEAN_MOTION_DDOT":"0.0000000000000","TLE_LINE1":"1 47656U 21012AN  22206.80614806  .00003411  00000-0  24774-3 0  9995","OBJECT_NAME":"STARLINK-2040","ARG_OF_PERICENTER":"64.5068","TIME_SYSTEM":"UTC"},{"MEAN_ANOMALY":"277.5374","MEAN_MOTION_DOT":"0.00000429","MEAN_ELEMENT_THEORY":"SGP4","RA_OF_ASC_NODE":"250.2602","TLE_LINE2":"2 47657  53.0532 250.2602 0001278  82.5761 277.5374 15.06392771 80591","OBJECT_TYPE":"PAYLOAD","FILE":"3521711","ELEMENT_SET_NO":"999","APOAPSIS":"548.121","CLASSIFICATION_TYPE":"U","SEMIMAJOR_AXIS":"6925.371","EPHEMERIS_TYPE":"0","DECAY_DATE":null,"MEAN_MOTION_DDOT":"0.0000000000000","TLE_LINE1":"1 47657U 21012AP  22206.81166943  .00000429  00000-0  47678-4 0  9996","OBJECT_NAME":"STARLINK-2041","ARG_OF_PERICENTER":"82.5761","TIME_SYSTEM":"UTC","NORAD_CAT_ID":"47657","REF_FRAME":"TEME","RCS_SIZE":"LARGE","ECCENTRICITY":"0.00012780","PERIAPSIS":"546.351","INCLINATION":"53.0532","EPOCH":"2022-07-25T19:28:48.238752","OBJECT_ID":"2021-012AP","MEAN_MOTION":"15.06392771","REV_AT_EPOCH":"8059","GP_ID":"208862476","PERIOD":"95.593","COUNTRY_CODE":"US","BSTAR":"0.00004767800000","SITE":"AFETR","LAUNCH_DATE":"2021-02-16","CENTER_NAME":"EARTH"},{"MEAN_ANOMALY":"279.4331","TLE_LINE2":"2 47658  53.0537 252.0790 0001499  80.6827 279.4331 15.06396466 80557","OBJECT_TYPE":"PAYLOAD","MEAN_ELEMENT_THEORY":"SGP4","RA_OF_ASC_NODE":"252.0790","MEAN_MOTION_DOT":"0.00000123","ELEMENT_SET_NO":"999","APOAPSIS":"548.263","CLASSIFICATION_TYPE":"U","FILE":"3521435","DECAY_DATE":null,"EPHEMERIS_TYPE":"0","SEMIMAJOR_AXIS":"6925.359","MEAN_MOTION_DDOT":"0.0000000000000","TLE_LINE1":"1 47658U 21012AQ  22206.40620751  .00000123  00000-0  27143-4 0  9990","TIME_SYSTEM":"UTC","ARG_OF_PERICENTER":"80.6827","OBJECT_NAME":"STARLINK-2042","ECCENTRICITY":"0.00014990","RCS_SIZE":"LARGE","REF_FRAME":"TEME","NORAD_CAT_ID":"47658","PERIAPSIS":"546.186","INCLINATION":"53.0537","REV_AT_EPOCH":"8055","MEAN_MOTION":"15.06396466","OBJECT_ID":"2021-012AQ","EPOCH":"2022-07-25T09:44:56.328864","GP_ID":"208831618","PERIOD":"95.592","COUNTRY_CODE":"US","SITE":"AFETR","BSTAR":"0.00002714300000","CENTER_NAME":"EARTH","LAUNCH_DATE":"2021-02-16"},{"PERIOD":"95.592","COUNTRY_CODE":"US","BSTAR":"0.00004170500000","SITE":"AFETR","LAUNCH_DATE":"2021-02-16","CENTER_NAME":"EARTH","NORAD_CAT_ID":"47659","REF_FRAME":"TEME","RCS_SIZE":"LARGE","ECCENTRICITY":"0.00016050","INCLINATION":"53.0545","PERIAPSIS":"546.097","EPOCH":"2022-07-25T19:55:20.265024","OBJECT_ID":"2021-012AR","MEAN_MOTION":"15.06401670","REV_AT_EPOCH":"8225","GP_ID":"208860975","MEAN_MOTION_DDOT":"0.0000000000000","TLE_LINE1":"1 47659U 21012AR  22206.83009566  .00000340  00000-0  41705-4 0  9994","OBJECT_NAME":"STARLINK-2043","ARG_OF_PERICENTER":"77.9351","TIME_SYSTEM":"UTC","MEAN_ANOMALY":"282.1818","MEAN_MOTION_DOT":"0.00000340","MEAN_ELEMENT_THEORY":"SGP4","RA_OF_ASC_NODE":"130.1783","OBJECT_TYPE":"PAYLOAD","TLE_LINE2":"2 47659  53.0545 130.1783 0001605  77.9351 282.1818 15.06401670 82259","FILE":"3521711","CLASSIFICATION_TYPE":"U","APOAPSIS":"548.320","ELEMENT_SET_NO":"999","EPHEMERIS_TYPE":"0","SEMIMAJOR_AXIS":"6925.343","DECAY_DATE":null}];
